CCSDS_OMM_VERS,COMMENT,CREATION_DATE,ORIGINATOR,OBJECT_NAME,OBJECT_ID,CENTER_NAME,REF_FRAME,TIME_SYSTEM,MEAN_ELEMENT_THEORY,EPOCH,MEAN_MOTION,ECCENTRICITY,INCLINATION,RA_OF_ASC_NODE,ARG_OF_PERICENTER,MEAN_ANOMALY,EPHEMERIS_TYPE,CLASSIFICATION_TYPE,NORAD_CAT_ID,ELEMENT_SET_NO,REV_AT_EPOCH,BSTAR,MEAN_MOTION_DOT,MEAN_MOTION_DDOT,SEMIMAJOR_AXIS,PERIOD,APOAPSIS,PERIAPSIS,OBJECT_TYPE,RCS_SIZE,COUNTRY_CODE,LAUNCH_DATE,SITE,DECAY_DATE,FILE,GP_ID,TLE_LINE0,TLE_LINE1,TLE_LINE2
"2.0","GENERATED VIA SPACE-TRACK.ORG API","2013-09-30T06:38:36","18 SPCS","PAYLOAD B","2013-037B","EARTH","TEME","UTC","SGP4","2013-09-30T04:22:01.106399","14.67244008","0.00059490","98.0552","289.6259","121.2900","238.8892","0","U","39209","999","1058","0.00003645500000","0.00000158","0.0000000000000","7048.021","98.143","674.079","665.693","PAYLOAD","LARGE","PRC","2013-07-19","TSC","","1555405","93960600","0 PAYLOAD B","1 39209U 13037B   13273.18195725  .00000158  00000-0  36455-4 0  9992","2 39209 098.0552 289.6259 0005949 121.2900 238.8892 14.67244008 10587"
"2.0","GENERATED VIA SPACE-TRACK.ORG API","2013-09-30T14:33:43","18 SPCS","PAYLOAD A","2013-037A","EARTH","TEME","UTC","SGP4","2013-09-30T11:26:29.831423","14.68177808","0.00097860","98.0562","290.0247","132.9046","227.2989","0","U","39208","999","1064","0.00005185200000","0.00000250","0.0000000000000","7045.032","98.080","673.792","660.003","PAYLOAD","LARGE","PRC","2013-07-19","TSC","","1555472","93961416","0 PAYLOAD A","1 39208U 13037A   13273.47673416  .00000250  00000-0  51852-4 0  9992","2 39208 098.0562 290.0247 0009786 132.9046 227.2989 14.68177808 10643"
"2.0","GENERATED VIA SPACE-TRACK.ORG API","2013-09-30T16:07:07","18 SPCS","PAYLOAD C","2013-037C","EARTH","TEME","UTC","SGP4","2013-09-30T11:30:44.817695","14.95012885","0.00342110","97.6965","290.0319","155.3774","204.9091","0","U","39210","999","1076","0.00010304000000","0.00001081","0.0000000000000","6960.474","96.320","606.151","558.526","PAYLOAD","LARGE","PRC","2013-07-19","TSC","","1555595","93964252","0 PAYLOAD C","1 39210U 13037C   13273.47968539  .00001081  00000-0  10304-3 0  9997","2 39210 097.6965 290.0319 0034211 155.3774 204.9091 14.95012885 10768"
"2.0","GENERATED VIA SPACE-TRACK.ORG API","2013-09-30T16:06:31","18 SPCS","PAYLOAD B","2013-037B","EARTH","TEME","UTC","SGP4","2013-09-30T12:33:01.724832","14.67244187","0.00059720","98.0557","289.9615","120.4870","239.6924","0","U","39209","999","1063","0.00004039800000","0.00000180","0.0000000000000","7048.020","98.143","674.095","665.676","PAYLOAD","LARGE","PRC","2013-07-19","TSC","","1555593","93964182","0 PAYLOAD B","1 39209U 13037B   13273.52293663  .00000180  00000-0  40398-4 0  9996","2 39209 098.0557 289.9615 0005972 120.4870 239.6924 14.67244187 10633"
"2.0","GENERATED VIA SPACE-TRACK.ORG API","2013-09-30T23:58:57","18 SPCS","PAYLOAD C","2013-037C","EARTH","TEME","UTC","SGP4","2013-09-30T19:32:38.998463","14.95012652","0.00341740","97.6964","290.3602","154.2235","206.0695","0","U","39210","999","1081","0.00008664900000","0.00000900","0.0000000000000","6960.474","96.320","606.126","558.553","PAYLOAD","LARGE","PRC","2013-07-19","TSC","","1555820","93967889","0 PAYLOAD C","1 39210U 13037C   13273.81434026  .00000900  00000-0  86649-4 0  9999","2 39210 097.6964 290.3602 0034174 154.2235 206.0695 14.95012652 10814"
"2.0","GENERATED VIA SPACE-TRACK.ORG API","2013-09-30T22:31:17","18 SPCS","PAYLOAD A","2013-037A","EARTH","TEME","UTC","SGP4","2013-09-30T19:37:11.739935","14.68177975","0.00098040","98.0560","290.3603","131.7627","228.4413","0","U","39208","999","1069","0.00005211800000","0.00000252","0.0000000000000","7045.032","98.080","673.804","659.990","PAYLOAD","LARGE","PRC","2013-07-19","TSC","","1555682","93965181","0 PAYLOAD A","1 39208U 13037A   13273.81749699  .00000252  00000-0  52118-4 0  9995","2 39208 098.0560 290.3603 0009804 131.7627 228.4413 14.68177975 10698"
"2.0","GENERATED VIA SPACE-TRACK.ORG API","2013-09-30T23:58:40","18 SPCS","PAYLOAD B","2013-037B","EARTH","TEME","UTC","SGP4","2013-09-30T20:44:02.421024","14.67243926","0.00061010","98.0556","290.2972","119.9340","240.2497","0","U","39209","999","1068","0.00002962000000","0.00000119","0.0000000000000","7048.021","98.143","674.186","665.586","PAYLOAD","LARGE","PRC","2013-07-19","TSC","","1555819","93967844","0 PAYLOAD B","1 39209U 13037B   13273.86391691  .00000119  00000-0  29620-4 0  9990","2 39209 098.0556 290.2972 0006101 119.9340 240.2497 14.67243926 10681"
"2.0","GENERATED VIA SPACE-TRACK.ORG API","2013-10-01T06:27:18","18 SPCS","PAYLOAD A","2013-037A","EARTH","TEME","UTC","SGP4","2013-10-01T02:09:45.213695","14.68178834","0.00098710","98.0558","290.6289","131.2939","228.9119","0","U","39208","999","1073","0.00007039500000","0.00000357","0.0000000000000","7045.029","98.080","673.848","659.940","PAYLOAD","LARGE","PRC","2013-07-19","TSC","","1555992","93968770","0 PAYLOAD A","1 39208U 13037A   13274.09010664  .00000357  00000-0  70395-4 0  9992","2 39208 098.0558 290.6289 0009871 131.2939 228.9119 14.68178834 10731"
"2.0","GENERATED VIA SPACE-TRACK.ORG API","2013-10-01T07:40:18","18 SPCS","PAYLOAD C","2013-037C","EARTH","TEME","UTC","SGP4","2013-10-01T03:34:33.095423","14.95013741","0.00342020","97.6963","290.6886","153.1594","207.1416","0","U","39210","999","1086","0.00009208600000","0.00000960","0.0000000000000","6960.471","96.320","606.142","558.530","PAYLOAD","LARGE","PRC","2013-07-19","TSC","","1556067","93970562","0 PAYLOAD C","1 39210U 13037C   13274.14899416  .00000960  00000-0  92086-4 0  9992","2 39210 097.6963 290.6886 0034202 153.1594 207.1416 14.95013741 10866"
"2.0","GENERATED VIA SPACE-TRACK.ORG API","2013-10-01T07:38:57","18 SPCS","PAYLOAD B","2013-037B","EARTH","TEME","UTC","SGP4","2013-10-01T04:55:02.968607","14.67244687","0.00060540","98.0555","290.6320","119.0375","241.1442","0","U","39209","999","1073","0.00005084900000","0.00000239","0.0000000000000","7048.019","98.143","674.151","665.617","PAYLOAD","LARGE","PRC","2013-07-19","TSC","","1556065","93970528","0 PAYLOAD B","1 39209U 13037B   13274.20489547  .00000239  00000-0  50849-4 0  9997","2 39209 098.0555 290.6320 0006054 119.0375 241.1442 14.67244687 10738"
"2.0","GENERATED VIA SPACE-TRACK.ORG API","2013-10-01T14:29:42","18 SPCS","PAYLOAD A","2013-037A","EARTH","TEME","UTC","SGP4","2013-10-01T10:20:27.105792","14.68179099","0.00098660","98.0559","290.9644","130.1613","230.0456","0","U","39208","999","1078","0.00007002700000","0.00000355","0.0000000000000","7045.028","98.080","673.844","659.942","PAYLOAD","LARGE","PRC","2013-07-19","TSC","","1556121","93971401","0 PAYLOAD A","1 39208U 13037A   13274.43086928  .00000355  00000-0  70027-4 0  9996","2 39208 098.0559 290.9644 0009866 130.1613 230.0456 14.68179099 10788"
"2.0","GENERATED VIA SPACE-TRACK.ORG API","2013-10-01T15:21:15","18 SPCS","PAYLOAD B","2013-037B","EARTH","TEME","UTC","SGP4","2013-10-01T11:27:51.444864","14.67245017","0.00060500","98.0557","290.9001","118.2410","241.9412","0","U","39209","999","1077","0.00005556600000","0.00000265","0.0000000000000","7048.018","98.143","674.147","665.619","PAYLOAD","LARGE","PRC","2013-07-19","TSC","","1556176","93972761","0 PAYLOAD B","1 39209U 13037B   13274.47767876  .00000265  00000-0  55566-4 0  9990","2 39209 098.0557 290.9001 0006050 118.2410 241.9412 14.67245017 10773"
"2.0","GENERATED VIA SPACE-TRACK.ORG API","2013-10-01T15:21:15","18 SPCS","PAYLOAD C","2013-037C","EARTH","TEME","UTC","SGP4","2013-10-01T11:36:27.171647","14.95014334","0.00341960","97.6965","291.0172","152.0848","208.2219","0","U","39210","999","1091","0.00008829800000","0.00000918","0.0000000000000","6960.469","96.320","606.136","558.532","PAYLOAD","LARGE","PRC","2013-07-19","TSC","","1556176","93972790","0 PAYLOAD C","1 39210U 13037C   13274.48364782  .00000918  00000-0  88298-4 0  9995","2 39210 097.6965 291.0172 0034196 152.0848 208.2219 14.95014334 10911"
"2.0","GENERATED VIA SPACE-TRACK.ORG API","2013-10-01T22:30:14","18 SPCS","PAYLOAD A","2013-037A","EARTH","TEME","UTC","SGP4","2013-10-01T18:31:09.060096","14.68178219","0.00099140","98.0556","291.3001","129.5262","230.6805","0","U","39208","999","1083","0.00004321600000","0.00000200","0.0000000000000","7045.031","98.080","673.880","659.911","PAYLOAD","LARGE","PRC","2013-07-19","TSC","","1556258","93973642","0 PAYLOAD A","1 39208U 13037A   13274.77163264  .00000200  00000-0  43216-4 0  9991","2 39208 098.0556 291.3001 0009914 129.5262 230.6805 14.68178219 10836"
"2.0","GENERATED VIA SPACE-TRACK.ORG API","2013-10-01T23:40:26","18 SPCS","PAYLOAD C","2013-037C","EARTH","TEME","UTC","SGP4","2013-10-01T19:38:21.323040","14.95014963","0.00342520","97.6965","291.3455","151.0595","209.2568","0","U","39210","999","1096","0.00009350400000","0.00000976","0.0000000000000","6960.467","96.320","606.173","558.491","PAYLOAD","LARGE","PRC","2013-07-19","TSC","","1556355","93975856","0 PAYLOAD C","1 39210U 13037C   13274.81830235  .00000976  00000-0  93504-4 0  9993","2 39210 097.6965 291.3455 0034252 151.0595 209.2568 14.95014963 10960"
"2.0","GENERATED VIA SPACE-TRACK.ORG API","2013-10-01T23:40:23","18 SPCS","PAYLOAD B","2013-037B","EARTH","TEME","UTC","SGP4","2013-10-01T19:38:52.112544","14.67244389","0.00060200","98.0553","291.2352","117.4054","242.7778","0","U","39209","999","1082","0.00002903300000","0.00000116","0.0000000000000","7048.020","98.143","674.128","665.642","PAYLOAD","LARGE","PRC","2013-07-19","TSC","","1556354","93975822","0 PAYLOAD B","1 39209U 13037B   13274.81865871  .00000116  00000-0  29033-4 0  9997","2 39209 098.0553 291.2352 0006020 117.4054 242.7778 14.67244389 10825"
